<?xml version="1.0" encoding="UTF-8"?>
<kml xmlns="http://www.opengis.net/kml/2.2" xmlns:sx="http://www.skylineglobe.com/kml/ext/7.03.001" xmlns:gx="http://www.google.com/kml/ext/2.2" xmlns:la="http://www.skylineglobe.com/layer/attributes">
	<Document>
		<sx:Terrain>
			<sx:RasterLayer><Link><href>/Imagery</href>
					<sx:layerName></sx:layerName>
				</Link>
				<sx:elevation>0</sx:elevation>
			</sx:RasterLayer>
			<sx:RasterLayer><Link><href>/Elevation</href>
					<sx:layerName></sx:layerName>
				</Link>
				<sx:elevation>1</sx:elevation>
			</sx:RasterLayer>
		</sx:Terrain>
		<Style id="Polyline">
			<LineStyle><color>ffffffff</color>
				<colorMode>normal</colorMode>
				<width>2</width>
			</LineStyle>
			<sx:order>0</sx:order>
		</Style>
		<Style id="Polygon">
			<LineStyle><color>ffffffff</color>
				<colorMode>normal</colorMode>
				<width>2</width>
			</LineStyle>
			<PolyStyle><fill>0</fill>
			</PolyStyle>
			<sx:order>0</sx:order>
		</Style>
		<Style id="BaseGlobe.I.tbp">
			<sx:order>-10</sx:order>
		</Style><Folder><name>IronBridge</name>
			<open>1</open>
			<sx:RasterLayer id="0_205680188"><name>BaseGlobe.I.tbp</name>
				<styleUrl>#BaseGlobe.I.tbp</styleUrl>
				<Link><href>https://fortescuesky.fmgl.com.au/SG/default/streamer.ashx</href>
					<sx:layerName>BaseGlobe.I.tbp</sx:layerName>
					<sx:format>image/jpeg</sx:format>
					<sx:service>WMS</sx:service>
				</Link>
				<sx:rasterData>&lt;!!!BaseGlobe.I.tbp&gt;&lt;&lt;00000282UaINUFOcPMJPUxuzUuiuUrT5Evk9.wMJUMkzUkxy.9vMTJMPAP9y.ty1.x32.wx2.42w.13x.x21P2yk.svv.3MJUUxrT9nzUzvy.6uuUluxUzkyUi1kUyq5TtlsEmrtUiusTtg1TuSGTujkUlg1ErzuUyzxUkgsEkxtUgynQ4#xUkw1UkyzT9GkUzMgQvlVUkxyUout.9wt.wtwTlSkUx2oEik9UWMSTlSRQS9EUPSG.6zy.x2lUBBOAX9s.w4v.rs5.vrw.4vr.5vlUHEIUGHT.9wxP4lWUIDTAH9x.12lULg5UkxyT9BgUykGUruhQktITtzhQvlSUz5rEky9TlFuUxsgQz9oUsgmQkupUvkmPMJCUgvgUhorUozoUkyUExr9UnzzEvy6PuulUuxzUkyiU1kyEq5tUlsmQrtiEustEg1uESGuUSzxUkgsEkxtUgynA4#MTJ41Ar9s.w4vPMJ5Erx9.s5vPMJ4Erx9.w4vPMJ5E1r9.5vMTJWKQT9GUEOGUCSaThWGASf4.zhrUDATUUMaThWGESew.54zPhrSUPHEUROIEDahUWGS.f4z.hr2.y34.wy3.rx5.4tx.13x.xy1.2yrUAUTUHORUITYQahEUPSG.hrh.3vyPvhcQcrAUUTHUORIUTYaThEPESGh.rh2.yx2ThccTrPRUIMEEMahUGxkUkt3Uoin.hrvTrAUUTHOURITEYahUEPSAGhr.h45.vwhEccrUUNIETahUjkmUxkk.hrv.tvw.3z1.yx5.x1w.55z.yyrUAUTUHORUITYQahEUPSG.hrh.5wxPxhcQcrAUUTHUORIUTYaThEPESGh.rhz.yx2Thcc.MJ.&gt;&gt;.wms</sx:rasterData>
				<sx:geometryWKT>POLYGON ((-179.9999990000000025 89.9999990000000025, 179.9999990000000025 89.9999990000000025, 179.9999990000000025 -89.9999999000000059, -179.9999990000000025 -89.9999999000000059, -179.9999990000000025 89.9999990000000025))</sx:geometryWKT>
				<sx:BoundingBox><sx:minX>-180.00000016763812027</sx:minX>
					<sx:maxX>180.00000016763800659</sx:maxX>
					<sx:minY>90.000000167638063431</sx:minY>
					<sx:maxY>-90.000000167638063431</sx:maxY>
				</sx:BoundingBox>
			</sx:RasterLayer>
			<Placemark id="0_205680191"><name>New Polygon ##14018625</name>
				<styleUrl>#Polygon</styleUrl>
				<Polygon>
					<altitudeMode>relativeToGround</altitudeMode>
					<outerBoundaryIs>
						<LinearRing>
							<coordinates>119.110713380401,-21.1940526638704,0 118.811158404456,-21.1938186493842,0 118.826385073452,-21.3218751132208,0 119.14434429123,-21.3171276862166,0 119.110713380401,-21.1940526638704,0</coordinates>
						</LinearRing>
					</outerBoundaryIs>
				</Polygon>
			</Placemark>
			<Placemark id="0_205680192"><name>New Polyline ##14018629</name>
				<styleUrl>#Polyline</styleUrl>
				<LineString>
					<altitudeMode>relativeToGround</altitudeMode>
					<coordinates>118.815078160793,-21.1926038040655,0 119.112687389245,-21.1919141331742,0 119.147772262433,-21.3204114407545,0 118.82444901515,-21.3239822945217,0 118.815402819405,-21.1919936467672,0 118.81606450884,-21.193522667278,0</coordinates>
				</LineString>
			</Placemark>
		</Folder>
	</Document>
</kml>
